NORAD_CAT_ID,OBJECT_NAME,OBJECT_TYPE,EPOCH,MEAN_MOTION,ECCENTRICITY,INCLINATION,RA_OF_ASC_NODE,ARG_OF_PERICENTER,MEAN_ANOMALY,BSTAR,MEAN_MOTION_DOT,MEAN_MOTION_DDOT,TLE_LINE0,TLE_LINE1,TLE_LINE2,SEMIMAJOR_AXIS,PERIOD,APOGEE,PERIGEE,DECAYED
52630.0,STARLINK-3989,PAYLOAD,2023-05-01 21:43:56,15.08849033,7.81e-05,53.2156,270.3571,104.7463,255.3616,0.00089269,0.00013951,0.0,0 STARLINK-3989,1 52630U 22052AJ  23121.90551919  .00013951  00000-0  89269-3 0  9991,2 52630  53.2156 270.3571 0000781 104.7463 255.3616 15.08849033 53946,6917.853,95.437,540.258,539.177,0.0
52630.0,STARLINK-3989,PAYLOAD,2023-05-02 08:51:38,15.08843744,0.0001009,53.2159,268.2761,84.1384,275.9723,0.00041865,6.382e-05,0.0,0 STARLINK-3989,1 52630U 22052AJ  23122.36920090  .00006382  00000-0  41865-3 0  9992,2 52630  53.2159 268.2761 0001009  84.1384 275.9723 15.08843744 54012,6917.869,95.437,540.432,539.036,0.0
52630.0,STARLINK-3989,PAYLOAD,2023-05-02 13:37:48,15.0884784,9.6e-05,53.2172,267.3864,113.1055,247.0038,0.00034317,5.179e-05,0.0,0 STARLINK-3989,1 52630U 22052AJ  23122.56791811  .00005179  00000-0  34317-3 0  9998,2 52630  53.2172 267.3864 0000960 113.1055 247.0038 15.08847840 53664,6917.856,95.437,540.386,539.057,0.0
52630.0,STARLINK-3989,PAYLOAD,2023-05-02 19:59:20,15.08852664,9.69e-05,53.2178,266.1966,88.6309,271.4794,0.00038111,5.785e-05,0.0,0 STARLINK-3989,1 52630U 22052AJ  23122.83287604  .00005785  00000-0  38111-3 0  9997,2 52630  53.2178 266.1966 0000969  88.6309 271.4794 15.08852664 53702,6917.842,95.437,540.377,539.036,0.0
52630.0,STARLINK-3989,PAYLOAD,2023-05-03 02:20:53,15.08835415,0.0001112,53.2159,265.0006,82.6663,277.4455,5.4204e-05,5.75e-06,0.0,0 STARLINK-3989,1 52630U 22052AJ  23123.09784144  .00000575  00000-0  54204-4 0  9991,2 52630  53.2159 265.0006 0001112  82.6663 277.4455 15.08835415 54124,6917.894,95.438,540.529,538.99,0.0
52630.0,STARLINK-3989,PAYLOAD,2023-05-03 13:28:35,15.08836752,8.59e-05,53.2158,262.9216,90.5759,269.5332,4.5342e-06,-2.16e-06,0.0,0 STARLINK-3989,1 52630U 22052AJ  23123.56152096 -.00000216  00000-0  45342-5 0  9995,2 52630  53.2158 262.9216 0000859  90.5759 269.5332 15.08836752 53819,6917.89,95.438,540.35,539.161,0.0
52630.0,STARLINK-3989,PAYLOAD,2023-05-03 18:14:44,15.0884109,8.44e-05,53.2161,262.03,82.1309,277.9779,0.00013727,1.898e-05,0.0,0 STARLINK-3989,1 52630U 22052AJ  23123.76024075  .00001898  00000-0  13727-3 0  9998,2 52630  53.2161 262.0300 0000844  82.1309 277.9779 15.08841090 53842,6917.877,95.437,540.326,539.158,0.0
52630.0,STARLINK-3989,PAYLOAD,2023-05-04 13:19:22,15.08838626,5.33e-05,53.2162,258.4626,78.0255,282.0797,0.00025661,3.799e-05,0.0,0 STARLINK-3989,1 52630U 22052AJ  23124.55512286  .00003799  00000-0  25661-3 0  9994,2 52630  53.2162 258.4626 0000533  78.0255 282.0797 15.08838626 53963,6917.885,95.438,540.118,539.381,0.0
52630.0,STARLINK-3989,PAYLOAD,2023-05-04 18:05:32,15.0884337,0.0001097,53.2166,257.568,69.4214,290.6896,0.00035239,5.325e-05,0.0,0 STARLINK-3989,1 52630U 22052AJ  23124.75384337  .00005325  00000-0  35239-3 0  9999,2 52630  53.2166 257.5680 0001097  69.4214 290.6896 15.08843370 54375,6917.87,95.437,540.494,538.976,0.0
52630.0,STARLINK-3989,PAYLOAD,2023-05-05 17:56:18,15.08858153,8.72e-05,53.2154,253.1102,62.6512,297.4569,0.0015322,0.00024193,0.0,0 STARLINK-3989,1 52630U 22052AJ  23125.74744142  .00024193  00000-0  15322-2 0  9997,2 52630  53.2154 253.1102 0000872  62.6512 297.4569 15.08858153 54141,6917.825,95.436,540.293,539.087,0.0
52630.0,STARLINK-3989,PAYLOAD,2023-05-06 01:53:14,15.08848303,0.0001273,53.215,251.6264,53.3608,306.7501,0.00087668,0.00013695,0.0,0 STARLINK-3989,1 52630U 22052AJ  23126.07864356  .00013695  00000-0  87668-3 0  9992,2 52630  53.2150 251.6264 0001273  53.3608 306.7501 15.08848303 54571,6917.855,95.437,540.601,538.839,0.0
52630.0,STARLINK-3989,PAYLOAD,2023-05-06 13:00:56,15.08846067,8.67e-05,53.2146,249.5434,75.9379,284.1709,0.00043744,6.682e-05,0.0,0 STARLINK-3989,1 52630U 22052AJ  23126.54232243  .00006682  00000-0  43744-3 0  9993,2 52630  53.2146 249.5434 0000867  75.9379 284.1709 15.08846067 54264,6917.862,95.437,540.327,539.127,0.0
52630.0,STARLINK-3989,PAYLOAD,2023-05-07 01:44:01,15.08848579,0.0001171,53.2141,247.1671,43.5364,316.572,0.00041027,6.249e-05,0.0,0 STARLINK-3989,1 52630U 22052AJ  23127.07224275  .00006249  00000-0  41027-3 0  9999,2 52630  53.2141 247.1671 0001171  43.5364 316.5720 15.08848579 54724,6917.854,95.437,540.529,538.909,0.0
52630.0,STARLINK-3989,PAYLOAD,2023-05-07 12:51:44,15.08834196,0.0001634,53.2147,245.0757,146.6472,213.4623,0.00012279,1.666e-05,0.0,0 STARLINK-3989,1 52630U 22052AJ  23127.53592643  .00001666  00000-0  12279-3 0  9992,2 52630  53.2147 245.0757 0001634 146.6472 213.4623 15.08834196 54414,6917.898,95.438,540.894,538.633,0.0
52630.0,STARLINK-3989,PAYLOAD,2023-05-07 14:27:07,15.08828969,8.07e-05,53.2157,244.7831,107.0744,253.0337,4.0619e-05,3.59e-06,0.0,0 STARLINK-3989,1 52630U 22052AJ  23127.60216973  .00000359  00000-0  40619-4 0  9997,2 52630  53.2157 244.7831 0000807 107.0744 253.0337 15.08828969 54804,6917.914,95.438,540.337,539.221,0.0
52630.0,STARLINK-3989,PAYLOAD,2023-05-08 14:17:55,15.08844236,7.58e-05,53.2154,240.3249,87.8781,272.2298,0.00094541,0.00014792,0.0,0 STARLINK-3989,1 52630U 22052AJ  23128.59577841  .00014792  00000-0  94541-3 0  9998,2 52630  53.2154 240.3249 0000758  87.8781 272.2298 15.08844236 54575,6917.867,95.437,540.257,539.208,0.0
52630.0,STARLINK-3989,PAYLOAD,2023-05-09 12:33:18,15.08866684,7.46e-05,53.2155,236.1618,82.6346,277.4731,0.00079432,0.00012386,0.0,0 STARLINK-3989,1 52630U 22052AJ  23129.52312836  .00012386  00000-0  79432-3 0  9992,2 52630  53.2155 236.1618 0000746  82.6346 277.4731 15.08866684 54712,6917.799,95.436,540.18,539.148,0.0
52630.0,STARLINK-3989,PAYLOAD,2023-05-10 12:24:05,15.08843522,0.0001258,53.217,231.7095,131.4641,228.646,-6.5028e-05,-1.323e-05,0.0,0 STARLINK-3989,1 52630U 22052AJ  23130.51672794 -.00001323  00000-0 -65028-4 0  9993,2 52630  53.2170 231.7095 0001258 131.4641 228.6460 15.08843522 54868,6917.87,95.437,540.605,538.864,0.0
52630.0,STARLINK-3989,PAYLOAD,2023-05-11 10:39:28,15.08847268,9.88e-05,53.2166,227.5428,124.9918,235.1167,5.4882e-05,5.86e-06,0.0,0 STARLINK-3989,1 52630U 22052AJ  23131.44408451  .00000586  00000-0  54882-4 0  9997,2 52630  53.2166 227.5428 0000988 124.9918 235.1167 15.08847268 55004,6917.858,95.437,540.407,539.04,0.0
52630.0,STARLINK-3989,PAYLOAD,2023-05-11 13:50:15,15.08850981,8.68e-05,53.216,226.9472,114.0319,246.0764,0.00016043,2.267e-05,0.0,0 STARLINK-3989,1 52630U 22052AJ  23131.57656314  .00002267  00000-0  16043-3 0  9998,2 52630  53.2160 226.9472 0000868 114.0319 246.0764 15.08850981 55406,6917.847,95.437,540.312,539.111,0.0
52630.0,STARLINK-3989,PAYLOAD,2023-05-12 08:54:53,15.08829798,2.03e-05,53.2157,223.3793,121.0623,239.0389,-7.4634e-05,-1.475e-05,0.0,0 STARLINK-3989,1 52630U 22052AJ  23132.37145036 -.00001475  00000-0 -74634-4 0  9994,2 52630  53.2157 223.3793 0000203 121.0623 239.0389 15.08829798 55146,6917.912,95.438,539.917,539.636,0.0
52630.0,STARLINK-3989,PAYLOAD,2023-05-13 11:56:26,15.08847991,7.01e-05,53.2145,218.321,65.8605,294.246,0.00061165,9.462e-05,0.0,0 STARLINK-3989,1 52630U 22052AJ  23133.49753017  .00009462  00000-0  61165-3 0  9998,2 52630  53.2145 218.3210 0000701  65.8605 294.2460 15.08847991 55697,6917.856,95.437,540.206,539.236,0.0
52630.0,STARLINK-3989,PAYLOAD,2023-05-13 15:07:12,15.08854119,6.99e-05,53.2146,217.7264,62.3881,297.7182,0.00077548,0.0001208,0.0,0 STARLINK-3989,1 52630U 22052AJ  23133.63000872  .00012080  00000-0  77548-3 0  9990,2 52630  53.2146 217.7264 0000699  62.3881 297.7182 15.08854119 55334,6917.837,95.437,540.186,539.219,0.0
52630.0,STARLINK-3989,PAYLOAD,2023-05-13 23:04:08,15.08841682,6.6e-05,53.2159,216.2382,77.6659,282.4407,0.00017711,2.532e-05,0.0,0 STARLINK-3989,1 52630U 22052AJ  23133.96121019  .00002532  00000-0  17711-3 0  9990,2 52630  53.2159 216.2382 0000660  77.6659 282.4407 15.08841682 55762,6917.875,95.437,540.197,539.284,0.0
52630.0,STARLINK-3989,PAYLOAD,2023-05-14 11:47:13,15.0883827,8.89e-05,53.2149,213.8599,83.9746,276.1347,0.0001256,1.712e-05,0.0,0 STARLINK-3989,1 52630U 22052AJ  23134.49113405  .00001712  00000-0  12560-3 0  9995,2 52630  53.2149 213.8599 0000889  83.9746 276.1347 15.08838270 55463,6917.886,95.438,540.366,539.136,0.0
52630.0,STARLINK-3989,PAYLOAD,2023-05-15 11:38:01,15.08845303,8.97e-05,53.2155,209.3997,78.9558,281.1535,0.00028021,4.175e-05,0.0,0 STARLINK-3989,1 52630U 22052AJ  23135.48473455  .00004175  00000-0  28021-3 0  9994,2 52630  53.2155 209.3997 0000897  78.9558 281.1535 15.08845303 55613,6917.864,95.437,540.35,539.109,0.0
52630.0,STARLINK-3989,PAYLOAD,2023-05-15 14:48:47,15.08846464,9.41e-05,53.2159,208.8042,84.1428,275.9672,0.00033159,4.994e-05,0.0,0 STARLINK-3989,1 52630U 22052AJ  23135.61721421  .00004994  00000-0  33159-3 0  9995,2 52630  53.2159 208.8042 0000941  84.1428 275.9672 15.08846464 56014,6917.861,95.437,540.377,539.075,0.0
52630.0,STARLINK-3989,PAYLOAD,2023-05-16 09:53:25,15.08837114,9.86e-05,53.2156,205.2346,81.9952,278.1152,0.0001065,1.407e-05,0.0,0 STARLINK-3989,1 52630U 22052AJ  23136.41209872  .00001407  00000-0  10650-3 0  9992,2 52630  53.2156 205.2346 0000986  81.9952 278.1152 15.08837114 56138,6917.889,95.438,540.436,539.072,0.0
52630.0,STARLINK-3989,PAYLOAD,2023-05-16 11:28:48,15.08838527,9.72e-05,53.2159,204.9364,80.8671,279.2431,8.768e-05,1.108e-05,0.0,0 STARLINK-3989,1 52630U 22052AJ  23136.47833770  .00001108  00000-0  87680-4 0  9994,2 52630  53.2159 204.9364 0000972  80.8671 279.2431 15.08838527 55767,6917.885,95.438,540.422,539.077,0.0
52630.0,STARLINK-3989,PAYLOAD,2023-05-16 21:01:07,15.08841901,9.87e-05,53.2158,203.1531,81.3488,278.7616,0.0001265,1.726e-05,0.0,0 STARLINK-3989,1 52630U 22052AJ  23136.87577612  .00001726  00000-0  12650-3 0  9998,2 52630  53.2158 203.1531 0000987  81.3488 278.7616 15.08841901 55827,6917.875,95.437,540.422,539.057,0.0
